ONEWEB-0053             
1 45157U 20008AC  26159.19040190  .00000730  00000+0  20540-2 0  9991
2 45157  87.8840  38.0764 0002252  74.5925 285.5451 13.10372175306739
ONEWEB-0054             
1 45158U 20008AD  26159.22523187 -.00000548  00000+0 -16057-2 0  9995
2 45158  87.8851  38.0512 0001860  83.3843 276.7496 13.10371371306855
ONEWEB-0056             
1 45159U 20008AE  26159.19692663  .00000635  00000+0  17813-2 0  9994
2 45159  87.8845  38.0507 0001921  90.5397 269.5951 13.10373031307004
ONEWEB-0057             
1 45160U 20008AF  26159.21375916 -.00000167  00000+0 -51329-3 0  9991
2 45160  87.8841  38.0602 0002239  75.4920 284.6455 13.10369158307175
ONEWEB-0058             
1 45161U 20008AG  26159.20049426  .00000438  00000+0  12188-2 0  9993
2 45161  87.8840  38.0691 0001576  78.7677 281.3628 13.10370021307246
ONEWEB-0059             
1 45162U 20008AH  26159.19717885  .00000647  00000+0  18158-2 0  9998
2 45162  87.8837  38.0687 0001753  75.8283 284.3039 13.10371183307144
ONEWEB-0062             
1 45163U 20008AJ  26159.22011962 -.00000478  00000+0 -14060-2 0  9998
2 45163  87.8846  38.0509 0001382  87.2361 272.8924 13.10370350307016
ONEWEB-0065             
1 45164U 20008AK  26159.17697501  .00000289  00000+0  79097-3 0  9992
2 45164  87.8850  38.0675 0002191  82.5358 277.6018 13.10375357306703
ONEWEB-0066             
1 45424U 20020A   26159.14367530  .00000552  00000+0  15218-2 0  9995
2 45424  87.8899  22.8712 0001718  80.7870 279.3453 13.11418759301499
ONEWEB-0067             
1 45425U 20020B   26159.18159895 -.00000487  00000+0 -14103-2 0  9994
2 45425  87.8915  22.7839 0001999  82.9002 277.2354 13.11422622301558
ONEWEB-0080             
1 45426U 20020C   26159.10481171 -.00000420  00000+0 -12221-2 0  9998
2 45426  87.8904  22.8743 0001524  88.6436 271.4867 13.11416049301517
ONEWEB-0090             
1 45427U 20020D   26159.13362883  .00001050  00000+0  29248-2 0  9995
2 45427  87.8891  22.8732 0001592  86.3035 273.8276 13.11425340301486
ONEWEB-0061             
1 45428U 20020E   26159.16557723  .00000109  00000+0  27205-3 0  9994
2 45428  87.8902  22.8517 0001758  83.3118 276.8210 13.11415531301442
ONEWEB-0081             
1 45429U 20020F   26159.14707007  .00000614  00000+0  16964-2 0  9995
2 45429  87.8899  22.8663 0001894  78.1812 281.9528 13.11418110301551
ONEWEB-0069             
1 45430U 20020G   26159.14889800  .00000632  00000+0  17482-2 0  9995
2 45430  87.8902  22.8687 0001836  81.5600 278.5736 13.11419147301489
ONEWEB-0031             
1 45431U 20020H   26159.18436138 -.00000452  00000+0 -13101-2 0  9998
2 45431  87.8892  22.8673 0001622  88.2089 271.9224 13.11416775301473
ONEWEB-0027             
1 45432U 20020J   26159.14284369 -.00000052  00000+0 -17196-3 0  9997
2 45432  87.9150   7.6614 0001820  97.2472 262.8866 13.16053600305164
ONEWEB-0064             
1 45433U 20020K   26159.18266170 -.00000625  00000+0 -18008-2 0  9990
2 45433  87.8897  22.8591 0001722  89.3302 270.8023 13.11416343301500
ONEWEB-0018             
1 45434U 20020L   26159.13858850  .00000415  00000+0  11354-2 0  9990
2 45434  87.8897  22.8675 0001576  73.7483 286.3818 13.11419512301446
ONEWEB-0083             
1 45435U 20020M   26159.12855910 -.00000035  00000+0 -13437-3 0  9999
2 45435  87.8905  22.8628 0001718  83.6649 276.4674 13.11418311301487
ONEWEB-0095             
1 45436U 20020N   26159.12010549 -.00000714  00000+0 -20525-2 0  9990
2 45436  87.8939  22.8767 0002864  97.1551 262.9903 13.11393189301484
ONEWEB-0092             
1 45437U 20020P   26159.15202938  .00000525  00000+0  14328-2 0  9991
2 45437  87.8903  22.8587 0002129  85.9918 274.1454 13.11955080301606
ONEWEB-0085             
1 45438U 20020Q   26159.12828005 -.00000031  00000+0 -12277-3 0  9994
2 45438  87.8897  22.8701 0001804  84.3519 275.7815 13.11419786301488
ONEWEB-0096             
1 45439U 20020R   26159.13014622  .00000096  00000+0  23389-3 0  9993
2 45439  87.8906  22.8651 0001826  86.6668 273.4669 13.11424012301477
ONEWEB-0037             
1 45440U 20020S   26159.16681767  .00000108  00000+0  26798-3 0  9999
2 45440  87.8914  22.8314 0001882  85.8344 274.2999 13.11910778301517
ONEWEB-0042             
1 45441U 20020T   26159.11979274 -.00000421  00000+0 -12223-2 0  9995
2 45441  87.8903  22.8636 0001861  81.3443 278.7896 13.11418609301477
ONEWEB-0098             
1 45442U 20020U   26159.11569566 -.00000400  00000+0 -11643-2 0  9997
2 45442  87.8901  22.8737 0001717  85.8837 274.2487 13.11417643301456
ONEWEB-0055             
1 45443U 20020V   26159.09437874 -.00000110  00000+0 -34674-3 0  9999
2 45443  87.8900  22.8763 0001729  85.5932 274.5393 13.11413236301421
ONEWEB-0093             
1 45444U 20020W   26159.15059873  .00000554  00000+0  15265-2 0  9990
2 45444  87.8905  22.8580 0002043  74.8518 285.2836 13.11418043301494
ONEWEB-0029             
1 45445U 20020X   26159.17772360 -.00000321  00000+0 -94104-3 0  9990
2 45445  87.8892  22.8626 0001808  75.5236 284.6092 13.11418296301479
