OBJECT_NAME,OBJECT_ID,EPOCH,MEAN_MOTION,ECCENTRICITY,INCLINATION,RA_OF_ASC_NODE,ARG_OF_PERICENTER,MEAN_ANOMALY,EPHEMERIS_TYPE,CLASSIFICATION_TYPE,NORAD_CAT_ID,ELEMENT_SET_NO,REV_AT_EPOCH,BSTAR,MEAN_MOTION_DOT,MEAN_MOTION_DDOT
ONEWEB-0053,2020-008AC,2026-06-08T04:34:10.724160,13.10372175,.00022525,87.8840,38.0764,74.5925,285.5451,0,U,45157,999,30673,.20540242E-2,.73E-5,0
ONEWEB-0054,2020-008AD,2026-06-08T05:24:20.033568,13.10371371,.00018606,87.8851,38.0512,83.3843,276.7496,0,U,45158,999,30685,-.16056868E-2,-.548E-5,0
ONEWEB-0056,2020-008AE,2026-06-08T04:43:34.460832,13.10373031,.00019215,87.8845,38.0507,90.5397,269.5951,0,U,45159,999,30700,.17813063E-2,.635E-5,0
ONEWEB-0057,2020-008AF,2026-06-08T05:07:48.791424,13.10369158,.0002239,87.8841,38.0602,75.4920,284.6455,0,U,45160,999,30717,-.51328802E-3,-.167E-5,0
ONEWEB-0058,2020-008AG,2026-06-08T04:48:42.704064,13.10370021,.00015768,87.8840,38.0691,78.7677,281.3628,0,U,45161,999,30724,.12188407E-2,.438E-5,0
ONEWEB-0059,2020-008AH,2026-06-08T04:43:56.252640,13.10371183,.00017533,87.8837,38.0687,75.8283,284.3039,0,U,45162,999,30714,.18158068E-2,.647E-5,0
ONEWEB-0062,2020-008AJ,2026-06-08T05:16:58.335168,13.10370350,.0001382,87.8846,38.0509,87.2361,272.8924,0,U,45163,999,30701,-.1405969E-2,-.478E-5,0
ONEWEB-0065,2020-008AK,2026-06-08T04:14:50.640864,13.10375357,.0002191,87.8850,38.0675,82.5358,277.6018,0,U,45164,999,30670,.79096925E-3,.289E-5,0
ONEWEB-0066,2020-020A,2026-06-08T03:26:53.545920,13.11418759,.00017181,87.8899,22.8712,80.7870,279.3453,0,U,45424,999,30149,.15218069E-2,.552E-5,0
ONEWEB-0067,2020-020B,2026-06-08T04:21:30.149280,13.11422622,.00019996,87.8915,22.7839,82.9002,277.2354,0,U,45425,999,30155,-.14103153E-2,-.487E-5,0
ONEWEB-0080,2020-020C,2026-06-08T02:30:55.731744,13.11416049,.00015246,87.8904,22.8743,88.6436,271.4867,0,U,45426,999,30151,-.12221381E-2,-.42E-5,0
ONEWEB-0090,2020-020D,2026-06-08T03:12:25.530912,13.11425340,.00015926,87.8891,22.8732,86.3035,273.8276,0,U,45427,999,30148,.2924756E-2,.105E-4,0
ONEWEB-0061,2020-020E,2026-06-08T03:58:25.872672,13.11415531,.00017586,87.8902,22.8517,83.3118,276.8210,0,U,45428,999,30144,.27204905E-3,.109E-5,0
ONEWEB-0081,2020-020F,2026-06-08T03:31:46.854048,13.11418110,.0001894,87.8899,22.8663,78.1812,281.9528,0,U,45429,999,30155,.16964274E-2,.614E-5,0
ONEWEB-0069,2020-020G,2026-06-08T03:34:24.787200,13.11419147,.00018367,87.8902,22.8687,81.5600,278.5736,0,U,45430,999,30148,.1748151E-2,.632E-5,0
ONEWEB-0031,2020-020H,2026-06-08T04:25:28.823232,13.11416775,.00016226,87.8892,22.8673,88.2089,271.9224,0,U,45431,999,30147,-.13101337E-2,-.452E-5,0
ONEWEB-0027,2020-020J,2026-06-08T03:25:41.694816,13.16053600,.000182,87.9150,7.6614,97.2472,262.8866,0,U,45432,999,30516,-.17195803E-3,-.52E-6,0
ONEWEB-0064,2020-020K,2026-06-08T04:23:01.970880,13.11416343,.00017225,87.8897,22.8591,89.3302,270.8023,0,U,45433,999,30150,-.18007855E-2,-.625E-5,0
ONEWEB-0018,2020-020L,2026-06-08T03:19:34.046400,13.11419512,.00015764,87.8897,22.8675,73.7483,286.3818,0,U,45434,999,30144,.11354471E-2,.415E-5,0
ONEWEB-0083,2020-020M,2026-06-08T03:05:07.506240,13.11418311,.00017189,87.8905,22.8628,83.6649,276.4674,0,U,45435,999,30148,-.13437395E-3,-.35E-6,0
ONEWEB-0095,2020-020N,2026-06-08T02:52:57.114336,13.11393189,.00028647,87.8939,22.8767,97.1551,262.9903,0,U,45436,999,30148,-.20525429E-2,-.714E-5,0
ONEWEB-0092,2020-020P,2026-06-08T03:38:55.338432,13.11955080,.00021299,87.8903,22.8587,85.9918,274.1454,0,U,45437,999,30160,.1432834E-2,.525E-5,0
ONEWEB-0085,2020-020Q,2026-06-08T03:04:43.396320,13.11419786,.00018049,87.8897,22.8701,84.3519,275.7815,0,U,45438,999,30148,-.12277074E-3,-.31E-6,0
ONEWEB-0096,2020-020R,2026-06-08T03:07:24.633408,13.11424012,.00018263,87.8906,22.8651,86.6668,273.4669,0,U,45439,999,30147,.23389224E-3,.96E-6,0
ONEWEB-0037,2020-020S,2026-06-08T04:00:13.046688,13.11910778,.00018823,87.8914,22.8314,85.8344,274.2999,0,U,45440,999,30151,.26798439E-3,.108E-5,0
ONEWEB-0042,2020-020T,2026-06-08T02:52:30.092736,13.11418609,.00018615,87.8903,22.8636,81.3443,278.7896,0,U,45441,999,30147,-.122229E-2,-.421E-5,0
ONEWEB-0098,2020-020U,2026-06-08T02:46:36.105024,13.11417643,.00017179,87.8901,22.8737,85.8837,274.2487,0,U,45442,999,30145,-.11642855E-2,-.4E-5,0
ONEWEB-0055,2020-020V,2026-06-08T02:15:54.323136,13.11413236,.00017295,87.8900,22.8763,85.5932,274.5393,0,U,45443,999,30142,-.34673885E-3,-.11E-5,0
ONEWEB-0093,2020-020W,2026-06-08T03:36:51.730272,13.11418043,.00020436,87.8905,22.8580,74.8518,285.2836,0,U,45444,999,30149,.15264983E-2,.554E-5,0
ONEWEB-0029,2020-020X,2026-06-08T04:15:55.319040,13.11418296,.00018086,87.8892,22.8626,75.5236,284.6092,0,U,45445,999,30147,-.94103783E-3,-.321E-5,0
